#aV2024  3  5  0  0  0.00000000     288 DD+AD WGS84 FIT  NGA
## 2304 172800.00000000   300.00000000 60374 0.0000000000000
+   32     1  2  3  4  5  6  7  8  9 10 11 12 13 14 15 16 17
+         18 19 20 21 22 23 24 25 26 27 28 29 30 31 32  0  0
+          0  0  0  0  0  0  0  0  0  0  0  0  0  0  0  0  0
+          0  0  0  0  0  0  0  0  0  0  0  0  0  0  0  0  0
+          0  0  0  0  0  0  0  0  0  0  0  0  0  0  0  0  0
++         2  2  2  2  2  2  2  2  2  2  2  2  2  2  2  2  2
++         2  2  2  2  2  2  2  2  2  2  2  2  2  2  2  0  0
++         0  0  0  0  0  0  0  0  0  0  0  0  0  0  0  0  0
++         0  0  0  0  0  0  0  0  0  0  0  0  0  0  0  0  0
++         0  0  0  0  0  0  0  0  0  0  0  0  0  0  0  0  0
%c cc cc ccc ccc cccc cccc cccc cccc ccccc ccccc ccccc ccccc
%c cc cc ccc ccc cccc cccc cccc cccc ccccc ccccc ccccc ccccc
%f  0.0000000  0.000000000  0.00000000000  0.000000000000000
%f  0.0000000  0.000000000  0.00000000000  0.000000000000000
%i    0    0    0    0      0      0      0      0         0
%i    0    0    0    0      0      0      0      0         0
/*      NGA, ST. LOUIS,MO.                                  
/*   EPHEMERIS COMPUTED FROM 2 DAYS OF DATA                 
/*   EPOCHA v9 SMOOTHER                                     
/*   G2296 IERS2010 SATIGS SATAPC                           
*  2024  3  5  9 55  0.00000000
P  1 -19275.139557  -6818.181566  16798.695294    172.409772                    
V  1 -12529.765332 -17868.364196 -20876.985106      0.018479                    
P  2 -21594.952217 -12474.847071   9998.627317   -475.281757                    
V  2  -6816.992587  -9953.497291 -28295.164988      0.060855                    
P  3 -14642.453415  -2517.913924  21864.415155    233.356048                    
V  3   9764.126750 -26301.035975   3603.239165      0.230377                    
P  4 -25157.767332  -2655.061555   8330.632761    307.442246                    
V  4  10132.891042  -3682.615808  29352.709446      0.091762                    
P  5   8903.768738  15831.691038 -19517.579095   -164.230915                    
V  5  -8698.643277  22847.743487  14782.707118     -0.014290                    
P  6    889.852477  19800.236087  17690.516860    381.011521                    
V  6 -14797.838649 -16735.691669  19655.962661     -0.158884                    
P  7 -15294.255188   4711.067446 -20773.950556    -77.107663                    
V  7 -16917.186334 -21670.096989   6902.688181     -0.088384                    
P  8 -20482.393099  -7299.040869 -15636.678164     32.130469                    
V  8  18819.451833  -5497.384277 -21803.859916      0.287055                    
P  9 -24977.659973   7931.076079  -4588.015422    113.946901                    
V  9  -6132.618213  -1692.927775  30943.746274      0.130006                    
P 10  10564.867193 -24077.830878  -1973.127484      0.739765                    
V 10   1259.039079   3449.891152 -32315.476291     -0.009650                    
P 11  10502.010410  23183.513442   7703.732607   -596.928420                    
V 11  -7737.472886  -6383.903076  29805.270582     -0.120954                    
P 12  14517.536859   4309.806629  21530.074809   -484.223196                    
V 12 -11499.919382  25555.571559   2666.998895     -0.036333                    
P 13  11924.654938  13362.632582 -19888.563878    631.384052                    
V 13 -24691.299749   1398.236707 -13788.991047      0.034063                    
P 14 -13467.764826  22051.173414  -5669.305351    342.535534                    
V 14   -323.405175  -8006.017953 -30432.082199      0.098265                    
P 15  20946.403627   5656.803098 -15943.182174    134.408624                    
V 15 -17769.428039   7989.335928 -20964.990836      0.039784                    
P 16  -3342.261775 -20231.147209 -16960.668919   -348.264761                    
V 16  10921.476598 -18132.039380  20317.547393      0.086667                    
P 17 -17013.109923  12912.458848  16309.008340    714.806347                    
V 17 -19895.531810    480.096808 -21550.330645     -0.013633                    
P 18  14128.365805  -5861.975048 -21717.744739   -569.248681                    
V 18  16786.206317  21841.265846   4841.666441     -0.077950                    
P 19  -7430.784988  14591.635360  20645.119866    449.646136                    
V 19 -26720.060696    446.991678 -10199.714325      0.053016                    
P 20   2340.726353  24667.225797  -9720.333704    385.088594                    
V 20  -4923.774695  11679.287879  28113.486928     -0.014269                    
P 21 -21029.445663 -16457.836682   5072.505963    132.550453                    
V 21  -2664.257386  -5327.057641 -30301.146162     -0.014559                    
P 22  -9790.711588  24734.619587   2929.385637     20.856500                    
V 22  -3634.922506   1755.671853 -31297.164031     -0.060237                    
P 23  15471.427131 -16648.051068 -13562.660236    170.183296                    
V 23  -3859.379245  16978.240347 -25381.792041      0.084344                    
P 24  21336.636872  14480.123434   6792.496745   -441.777457                    
V 24   4108.937644   8722.536091 -29287.977051     -0.056403                    
P 25  16879.896007  -7666.456060  18577.229729    490.458503                    
V 25  -6620.446303  23581.937328  15730.381049      0.010526                    
P 26   2515.202761 -25485.799819  -6421.576562    183.125191                    
V 26   5981.658023  -6669.725459  29863.774067     -0.043607                    
P 27  -8756.651814 -13615.205235 -21407.463045     -9.390976                    
V 27  26014.119262  -4780.759388  -7275.567176     -0.029978                    
P 28   1179.262301 -18655.146905  18850.800615   -153.326705                    
V 28  16810.356261  17149.966522  15898.493913     -0.135336                    
P 29  26101.936344  -4269.893765  -3029.187735   -605.570816                    
V 29   3949.869846   2007.930656  31642.212960      0.008447                    
P 30  -7086.163975  15169.088575 -20433.275238   -423.995275                    
V 30 -17522.481628 -19776.713370  -8817.952228      0.051727                    
P 31  -6840.829827 -22437.005256  11852.481008   -227.930339                    
V 31  11818.096158  10493.298967  26613.710359     -0.000850                    
P 32  13131.465176 -14843.923764  17786.507450   -614.648298                    
V 32  22222.669731  -2094.879229 -18568.878671     -0.015270                    
EOF
